{
    "links": {
        "self": "http://www.neowsapp.com/rest/v1/neo/3428259?api_key=iIulBulltgU6a56xZRHN4H3l9WmuAYTsLGpBGhQ2"
    },
    "id": "3428259",
    "neo_reference_id": "3428259",
    "name": "(2008 SJ148)",
    "designation": "2008 SJ148",
    "nasa_jpl_url": "http://ssd.jpl.nasa.gov/sbdb.cgi?sstr=3428259",
    "absolute_magnitude_h": 24.3,
    "estimated_diameter": {
        "kilometers": {
            "estimated_diameter_min": 0.0366906138,
            "estimated_diameter_max": 0.0820427065
        },
        "meters": {
            "estimated_diameter_min": 36.6906137531,
            "estimated_diameter_max": 82.0427064882
        },
        "miles": {
            "estimated_diameter_min": 0.0227984834,
            "estimated_diameter_max": 0.0509789586
        },
        "feet": {
            "estimated_diameter_min": 120.3760332259,
            "estimated_diameter_max": 269.1689931548
        }
    },
    "is_potentially_hazardous_asteroid": false,
    "close_approach_data": [
        {
            "close_approach_date": "1964-06-05",
            "close_approach_date_full": "1964-Jun-05 06:46",
            "epoch_date_close_approach": -175886040000,
            "relative_velocity": {
                "kilometers_per_second": "9.753254954",
                "kilometers_per_hour": "35111.7178343391",
                "miles_per_hour": "21817.0560065647"
            },
            "miss_distance": {
                "astronomical": "0.0740323673",
                "lunar": "28.7985908797",
                "kilometers": "11075084.459137651",
                "miles": "6881738.3724595438"
            },
            "orbiting_body": "Venus"
        },
        {
            "close_approach_date": "1968-03-01",
            "close_approach_date_full": "1968-Mar-01 21:06",
            "epoch_date_close_approach": -57898440000,
            "relative_velocity": {
                "kilometers_per_second": "7.7625664513",
                "kilometers_per_hour": "27945.2392246468",
                "miles_per_hour": "17364.0848948923"
            },
            "miss_distance": {
                "astronomical": "0.4119373337",
                "lunar": "160.2436228093",
                "kilometers": "61624947.694999219",
                "miles": "38291966.8755744622"
            },
            "orbiting_body": "Earth"
        },
        {
            "close_approach_date": "2008-09-20",
            "close_approach_date_full": "2008-Sep-20 00:57",
            "epoch_date_close_approach": 1221872220000,
            "relative_velocity": {
                "kilometers_per_second": "9.9097409467",
                "kilometers_per_hour": "35675.0674079411",
                "miles_per_hour": "22167.0995235621"
            },
            "miss_distance": {
                "astronomical": "0.0676542622",
                "lunar": "26.3175079958",
                "kilometers": "10120933.521541514",
                "miles": "6288856.4721363332"
            },
            "orbiting_body": "Earth"
        }
    ],
    "orbital_data": {
        "orbit_id": "11",
        "orbit_determination_date": "2017-04-06 09:02:49",
        "first_observation_date": "2008-09-29",
        "last_observation_date": "2008-10-10",
        "data_arc_in_days": 11,
        "observations_used": 34,
        "orbit_uncertainty": "8",
        "minimum_orbit_intersection": ".0100043",
        "jupiter_tisserand_invariant": "5.189",
        "epoch_osculation": "2454742.5",
        "eccentricity": ".3854116034334944",
        "semi_major_axis": "1.210198914584084",
        "inclination": "2.63962067634061",
        "ascending_node_longitude": "202.6685793018805",
        "orbital_period": "486.2768172236921",
        "perihelion_distance": ".7437742104407578",
        "perihelion_argument": "72.86041911565412",
        "aphelion_distance": "1.676623618727411",
        "perihelion_time": "2454670.741121156277",
        "mean_anomaly": "53.12446628903708",
        "mean_motion": ".7403190677592932",
        "equinox": "J2000",
        "orbit_class": {
            "orbit_class_type": "APO",
            "orbit_class_description": "Near-Earth asteroid orbits which cross the Earth’s orbit similar to that of 1862 Apollo",
            "orbit_class_range": "a (semi-major axis) > 1.0 AU; q (perihelion) < 1.017 AU"
        }
    },
    "is_sentry_object": false
}